IXPE                    
1 49954U 21121A   24147.58334491  .00006834  00000+0  49528-3 0  9994
2 49954   0.2285 193.6711 0009116 317.2910 247.3455 14.98000320  5897
